[Satellite]
VERSION=1.1
NAME=DAURIA DX 1
NICKNAME=DAURIA DX 1
TLE1=1 40071U 14037C   18018.71448596  .00000095  00000-0  19637-4 0  9993
TLE2=2 40071  98.3555 143.6146 0009888  82.0957 278.1380 14.81113523190871
